SatCatId,ObjectName,LaunchYear,OrbitalPeriod,LaunchMass,StatusCode,Inclination,Status,UcsData,OrbitClassEstimated,LaunchSiteCountry,Owner,UseType,Purpose,LaunchVehicleClass,TLE1,TLE2,MeanMotion,Eccentricity,OrbitClass
40081,O3B FM6,2014,287.93,650.0,+,0.06,Active,1,MEO,French Guiana,O3b Networks,Commercial,Communications,Soyuz,1 40081U 14038C   25299.40688214 -.00000019  00000+0  00000+0 0  9998,2 40081   0.0576   0.0935 0002727 213.2505 146.6460  5.00115681206132,5.00115681,0.0002727,MEO
40082,O3B FM8,2014,287.93,650.0,+,0.06,Active,1,MEO,French Guiana,O3b Networks,Commercial,Communications,Soyuz,1 40082U 14038D   25299.26037420 -.00000019  00000+0  00000+0 0  9990,2 40082   0.0587   0.5013 0002569 214.0742 145.4150  5.00115873206241,5.00115873,0.0002569,MEO
40086,ORBCOMM FM109,2014,98.74,172.0,+,47.0,Active,1,LEO,USA,ORBCOMM,Commercial,Communications,Falcon,1 40086U 14040A   25299.52756575  .00000853  00000+0  21870-3 0  9992,2 40086  47.0018 115.8987 0002107 230.4843 129.5856 14.58412285600230,14.58412285,0.0002107,LEO
40105,NAVSTAR 71 (USA 256),2014,717.96,1630.0,+,55.2,Active,1,MEO,USA,USA,Commercial/Military,Navigation (Global or Regional Positioning),Atlas,1 40105U 14045A   25297.72248507  .00000023  00000+0  00000+0 0  9997,2 40105  55.1978  97.8543 0033317 118.4014 241.9400  2.00569649 81357,2.00569649,0.0033317,MEO
40107,ASIASAT 8 (AMOS-7),2014,1436.14,4500.0,+,0.05,Active,1,GSO,USA,ASIASAT,Commercial,Communications,Falcon,1 40107U 14046A   25299.49504994 -.00000320  00000+0  00000+0 0  9992,2 40107   0.0508  80.5912 0001366 144.2202  93.8108  1.00268149 99809,1.00268149,0.0001366,GEO
40109,YAOGAN-20 01A,2014,107.03,-1.0,+,63.38,Active,1,LEO,PRC,China,Military,Earth Observation,Long March,1 40109U 14047A   25299.53208962  .00000071  00000+0  18038-3 0  9992,2 40109  63.3801 261.4572 0369659  13.4194 347.6344 13.45407036551009,13.45407036,0.0369659,LEO
40110,YAOGAN-20 01B,2014,107.03,-1.0,+,63.38,Active,1,LEO,PRC,China,Military,Earth Observation,Long March,1 40110U 14047B   25299.53350447  .00000079  00000+0  18990-3 0  9995,2 40110  63.3810 262.3285 0369515  13.4434 347.6118 13.45405762550844,13.45405762,0.0369515,LEO
40111,YAOGAN-20 01C,2014,107.03,-1.0,+,63.38,Active,1,LEO,PRC,China,Military,Earth Observation,Long March,1 40111U 14047C   25299.52582692  .00000070  00000+0  17950-3 0  9990,2 40111  63.3793 262.0570 0369603  13.8159 347.2656 13.45416316550856,13.45416316,0.0369603,LEO
40115,WORLDVIEW-3 (WV-3),2014,96.95,2800.0,+,97.87,Active,1,LEO,USA,USA,Commercial,Earth Observation,Atlas,1 40115U 14048A   25299.48622252  .00001582  00000+0  19029-3 0  9995,2 40115  97.8660  12.3551 0005067  11.0744 349.0581 14.85331960607228,14.8533196,0.0005067,LEO
40118,GAOFEN-2,2014,97.27,1000.0,+,98.05,Active,1,LEO,PRC,China,Government,Earth Observation,Long March,1 40118U 14049A   25299.22985990  .00001713  00000+0  23102-3 0  9995,2 40118  98.0453 358.3027 0005895 273.2933  86.7604 14.80456194604619,14.80456194,0.0005895,LEO
40119,BRITE-PL2 (HEWELIUSZ),2014,96.43,10.0,+,97.9,Active,1,LEO,PRC,Poland,Government,Space Science,Long March,1 40119U 14049B   25299.29865123  .00003414  00000+0  33088-3 0  9992,2 40119  97.8978  44.9435 0014893 161.0668 199.1108 14.93303283606521,14.93303283,0.0014893,LEO
40128,GSAT0201 (GALILEO 5),2014,776.2,733.0,B,49.13,Active,1,MEO,French Guiana,ESA,Commercial,Navigation (Global or Regional Positioning),Soyuz,1 40128U 14050A   25298.95780132 -.00000028  00000+0  00000+0 0  9995,2 40128  49.1317 283.0093 1643484 170.4690 193.0935  1.85519665 73976,1.85519665,0.1643484,MEO
40129,GSAT0202 (GALILEO 6),2014,776.19,733.0,B,49.15,Active,1,MEO,French Guiana,ESA,Commercial,Navigation (Global or Regional Positioning),Soyuz,1 40129U 14050B   25298.13625751 -.00000034  00000+0  00000+0 0  9998,2 40129  49.1490 282.1257 1643947 171.1930 192.1020  1.85520432 76129,1.85520432,0.1643947,MEO
40136,LING QIAO,2014,100.68,100.0,+,98.7,Active,1,LEO,PRC,China,Commercial,Technology Development,Long March,1 40136U 14051A   25299.53834692  .00000081  00000+0  48223-4 0  9993,2 40136  98.7004 296.2655 0021617 135.6646 224.6272 14.30212940581608,14.3021294,0.0021617,LEO
40137,CHUANGXIN 1-04 (CX-1-04),2014,100.68,100.0,+,98.7,Active,1,LEO,PRC,China,Government,Earth Observation,Long March,1 40137U 14051B   25299.52246418  .00000140  00000+0  70777-4 0  9991,2 40137  98.7003 296.2453 0023071 137.0615 223.2373 14.30332715581141,14.30332715,0.0023071,LEO
40141,ASIASAT 6,2014,1436.1,3700.0,+,0.02,Active,1,GSO,USA,ASIASAT,Commercial,Communications,Falcon,1 40141U 14052A   25298.99842999 -.00000350  00000+0  00000+0 0  9994,2 40141   0.0195 259.3062 0000837 270.9612 343.7236  1.00274037 40724,1.00274037,8.37e-05,GEO
40143,YAOGAN-21,2014,94.46,-1.0,+,97.18,Active,1,LEO,PRC,China,Military,Earth Observation,Long March,1 40143U 14053A   25299.52640259  .00009600  00000+0  39311-3 0  9999,2 40143  97.1824 344.8765 0011806 228.5152 131.5073 15.24439565619351,15.24439565,0.0011806,LEO
40146,OPTUS 10,2014,1436.15,3270.0,+,0.11,Active,1,GSO,French Guiana,Australia,Commercial,Communications,Ariane,1 40146U 14054A   25299.44975448 -.00000135  00000+0  00000+0 0  9999,2 40146   0.1119 351.8971 0003131 215.6509 145.4676  1.00270454 40683,1.00270454,0.0003131,GEO
40147,MEASAT-3B,2014,1436.08,5800.0,+,0.06,Active,1,GSO,French Guiana,Malaysia,Commercial,Communications,Ariane,1 40147U 14054B   25299.49227661 -.00000230  00000+0  00000+0 0  9998,2 40147   0.0551  60.4461 0000178 154.5860  88.8264  1.00272626 40562,1.00272626,1.78e-05,GEO
40258,LUCH (OLYMP-K 1),2014,1452.82,-1.0,+,1.28,Active,1,GSO,Kazakhstan,Russia/USSR,Military,Communications,Proton,1 40258U 14058A   25298.69295316 -.00000045  00000+0  00000+0 0  9992,2 40258   1.2810  85.4650 0003336 121.3965  95.8185  0.99117801 38646,0.99117801,0.0003336,GSO
40261,SJ-11-07,2014,98.4,-1.0,+,98.02,Active,1,LEO,PRC,China,Government,Technology Development,Long March,1 40261U 14059A   25299.49175539  .00000966  00000+0  19572-3 0  9999,2 40261  98.0232  10.4473 0011219 160.7357 199.4272 14.63371722590735,14.63371722,0.0011219,LEO
40267,HIMAWARI-8,2014,1436.11,3500.0,+,0.03,Active,1,GSO,Japan,Japan,Government,Earth Observation,H2A,1 40267U 14060A   25299.43065627 -.00000263  00000+0  00000+0 0  9990,2 40267   0.0281 142.8216 0000749  68.9541 119.0024  1.00270712 40415,1.00270712,7.49e-05,GEO
40269,IRNSS-1C,2014,1436.04,1425.0,P,5.92,Active,1,GSO,India,India,Government,Navigation (Global or Regional Positioning),PSLV,1 40269U 14061A   25299.49211404 -.00000147  00000+0  00000+0 0  9996,2 40269   5.9178  93.5769 0018734   4.4628 197.1381  1.00275320 40340,1.0027532,0.0018734,GSO
40271,INTELSAT 30 (IS-30),2014,1436.1,6220.0,+,0.01,Active,1,GSO,French Guiana,INTELSAT,Commercial,Communications,Ariane,1 40271U 14062A   25299.36294808 -.00000139  00000+0  00000+0 0  9996,2 40271   0.0161 291.8236 0001698 141.5277 357.2734  1.00272012  4433,1.00272012,0.0001698,GEO
40272,ARSAT 1,2014,1436.09,3000.0,+,0.03,Active,1,GSO,French Guiana,Argentina,Commercial,Communications,Ariane,1 40272U 14062B   25299.43459740 -.00000248  00000+0  00000+0 0  9994,2 40272   0.0342  61.7641 0001697 140.3145 277.6569  1.00271810 40277,1.0027181,0.0001697,GEO
40275,YAOGAN-22,2014,109.46,-1.0,+,100.74,Active,1,LEO,PRC,China,Military,Earth Observation,Long March,1 40275U 14063A   25299.40390766 -.00000008  00000+0  10374-3 0  9990,2 40275 100.7388  82.1643 0006258   1.2113 358.9012 13.15519369529074,13.15519369,0.0006258,LEO
40277,EXPRESS-AM6,2014,1436.11,3358.0,+,0.01,Active,1,GSO,Kazakhstan,Russia/USSR,Commercial,Communications,Proton,1 40277U 14064A   25299.12791060  .00000110  00000+0  00000+0 0  9998,2 40277   0.0139 245.9401 0001270 334.3835 273.5160  1.00273286 39228,1.00273286,0.000127,GEO
40286,SJ-11-08,2014,98.25,-1.0,+,98.32,Active,1,LEO,PRC,China,Government,Technology Development,Long March,1 40286U 14066A   25299.48337012  .00001298  00000+0  24760-3 0  9993,2 40286  98.3204  75.8817 0011158 242.4218 117.5852 14.65704631586974,14.65704631,0.0011158,LEO
40294,NAVSTAR 72 (USA 258),2014,717.98,1630.0,+,56.82,Active,1,MEO,USA,USA,Commercial/Military,Navigation (Global or Regional Positioning),Atlas,1 40294U 14068A   25297.59791060 -.00000070  00000+0  00000+0 0  9996,2 40294  56.8228  40.0465 0061220  69.8875 290.7820  2.00561963 80485,2.00561963,0.006122,MEO
40296,MERIDIAN 7,2014,717.79,2500.0,+,63.47,Active,1,MEO,Russia,Russia/USSR,Military,Communications,Soyuz,1 40296U 14069A   25298.88040958  .00000024  00000+0  00000+0 0  9993,2 40296  63.4694 238.9877 6755019 271.9234  18.2562  2.00615144 80533,2.00615144,0.6755019,MEO
40298,ASNARO,2014,94.77,500.0,+,97.37,Active,1,LEO,Russia,Japan,Government,Earth Observation,Dnepr,1 40298U 14070A   25299.52400312  .00011804  00000+0  55923-3 0  9999,2 40298  97.3687  16.6127 0004564 219.2067 140.8838 15.19460927608521,15.19460927,0.0004564,LEO
40310,YAOGAN-24,2014,97.55,-1.0,+,98.12,Active,1,LEO,PRC,China,Military,Earth Observation,Long March,1 40310U 14072A   25299.49949277  .00001417  00000+0  21234-3 0  9997,2 40310  98.1188  70.3512 0012410 298.4067  61.5891 14.76197255589242,14.76197255,0.001241,LEO
40315,COSMOS 2501 [GLONASS-K],2014,675.73,935.0,+,63.61,Active,1,MEO,Russia,Russia/USSR,Commercial/Military,Navigation (Global or Regional Positioning),Soyuz,1 40315U 14075A   25299.14032792  .00000023  00000+0  00000+0 0  9998,2 40315  63.6134 198.4733 0020602 207.2346 152.7279  2.13101388 84863,2.13101388,0.0020602,MEO
40332,GSAT-16,2014,1436.12,3181.0,+,0.04,Active,1,GSO,French Guiana,India,Government,Communications,Ariane,1 40332U 14078A   25299.48508323  .00000097  00000+0  00000+0 0  9996,2 40332   0.0376 255.9408 0005002 234.1463 134.7211  1.00271057 39760,1.00271057,0.0005002,GEO
